GLOBALSTAR M063         
1 26081U 00008A   24216.49245910 -.00000051  00000+0  46344-3 0  9994
2 26081  51.9917 228.2585 0004444  64.0950  93.6964 11.86159257119871
GLOBALSTAR M062         
1 26082U 00008B   24216.52005355 -.00000089  00000+0  68518-4 0  9995
2 26082  51.9866 309.9312 0007567 152.7039 221.1157 12.43441166457102
GLOBALSTAR M060         
1 26083U 00008C   24216.40516284 -.00000134  00000+0 -42892-3 0  9999
2 26083  51.9989 225.3173 0003482 201.0022 306.0789 12.17638204113652
GLOBALSTAR M064         
1 26084U 00008D   24216.58213728 -.00000078  00000+0  72289-4 0  9996
2 26084  52.0057 330.5961 0001973 150.7977 209.2966 11.88520510129337
GLOBALSTAR M065         
1 31571U 07020A   24216.49409086 -.00000084  00000+0  10940-3 0  9990
2 31571  51.9892 113.1990 0010032 327.1971 204.6922 12.61975175793292
GLOBALSTAR M069         
1 31573U 07020C   24216.60845108 -.00000068  00000+0  19893-3 0  9992
2 31573  51.9955  68.6161 0001030  70.5293 337.8364 12.62244883794445
GLOBALSTAR M072         
1 31574U 07020D   24216.63175166 -.00000097  00000+0  39165-4 0  9993
2 31574  52.0069 164.5280 0000679 354.9465 176.9935 12.62260983792713
GLOBALSTAR M071         
1 31576U 07020F   24216.34557332 -.00000063  00000+0  22863-3 0  9991
2 31576  52.0070  74.6209 0001303  88.2712  83.6073 12.62271478455596
